{
  "type": "FeatureCollection",
  "features": [
    {
      "type": "Feature",
      "properties": {
        "norad_id": 37846,
        "name": "GSAT0101 (GALILEO-PFM)",
        "group": "gnss",
        "lat": -2.9946828100828657,
        "lon": 169.0132251621052,
        "alt_km": 23227.489159339704,
        "timestamp": "2025-12-03T19:33:07.218419+00:00",
        "meta_object_name": "GSAT0101 (GALILEO-PFM)",
        "meta_object_id": "2011-060A",
        "meta_epoch": "2025-12-01T04:03:41.055552",
        "meta_mean_motion": 1.70475524,
        "meta_eccentricity": 0.00027506,
        "meta_inclination": 57.0554,
        "meta_ra_of_asc_node": 347.1343,
        "meta_arg_of_pericenter": 309.7017,
        "meta_mean_anomaly": 50.3167,
        "meta_ephemeris_type": 0,
        "meta_classification_type": "U",
        "meta_norad_cat_id": 37846,
        "meta_element_set_no": 999,
        "meta_rev_at_epoch": 8774,
        "meta_bstar": 0,
        "meta_mean_motion_dot": -5.9e-07,
        "meta_mean_motion_ddot": 0,
        "tle_line1": "1 37846U 11060A   25335.16922518 -.00000059  00000+0  00000+0 0  9991",
        "tle_line2": "2 37846  57.0554 347.1343 0002750 309.7017  50.3167  1.70475524 87745"
      },
      "geometry": {
        "type": "Point",
        "coordinates": [
          169.0132251621052,
          -2.9946828100828657
        ]
      }
    },
    {
      "type": "Feature",
      "properties": {
        "norad_id": 37847,
        "name": "GSAT0102 (GALILEO-FM2)",
        "group": "gnss",
        "lat": -39.282500938665834,
        "lon": -160.88959951047363,
        "alt_km": 23223.56082910735,
        "timestamp": "2025-12-03T19:33:07.218431+00:00",
        "meta_object_name": "GSAT0102 (GALILEO-FM2)",
        "meta_object_id": "2011-060B",
        "meta_epoch": "2025-12-02T06:27:38.704608",
        "meta_mean_motion": 1.70475743,
        "meta_eccentricity": 0.00047518,
        "meta_inclination": 57.0559,
        "meta_ra_of_asc_node": 347.1049,
        "meta_arg_of_pericenter": 306.1199,
        "meta_mean_anomaly": 54.4344,
        "meta_ephemeris_type": 0,
        "meta_classification_type": "U",
        "meta_norad_cat_id": 37847,
        "meta_element_set_no": 999,
        "meta_rev_at_epoch": 8777,
        "meta_bstar": 0,
        "meta_mean_motion_dot": -6.2e-07,
        "meta_mean_motion_ddot": 0,
        "tle_line1": "1 37847U 11060B   25336.26919797 -.00000062  00000+0  00000+0 0  9993",
        "tle_line2": "2 37847  57.0559 347.1049 0004751 306.1199  54.4344  1.70475743 87777"
      },
      "geometry": {
        "type": "Point",
        "coordinates": [
          -160.88959951047363,
          -39.282500938665834
        ]
      }
    },
    {
      "type": "Feature",
      "properties": {
        "norad_id": 37867,
        "name": "COSMOS 2476 (744)",
        "group": "gnss",
        "lat": 36.41315074924854,
        "lon": 99.42205062703181,
        "alt_km": 19185.40393800746,
        "timestamp": "2025-12-03T19:33:07.218450+00:00",
        "meta_object_name": "COSMOS 2476 (744)",
        "meta_object_id": "2011-064A",
        "meta_epoch": "2025-12-02T19:57:36.313920",
        "meta_mean_motion": 2.13101261,
        "meta_eccentricity": 0.00239603,
        "meta_inclination": 65.1573,
        "meta_ra_of_asc_node": 79.5068,
        "meta_arg_of_pericenter": 233.4935,
        "meta_mean_anomaly": 133.1658,
        "meta_ephemeris_type": 0,
        "meta_classification_type": "U",
        "meta_norad_cat_id": 37867,
        "meta_element_set_no": 999,
        "meta_rev_at_epoch": 10958,
        "meta_bstar": 0,
        "meta_mean_motion_dot": -2.2e-07,
        "meta_mean_motion_ddot": 0,
        "tle_line1": "1 37867U 11064A   25336.83167030 -.00000022  00000+0  00000+0 0  9993",
        "tle_line2": "2 37867  65.1573  79.5068 0023960 233.4935 133.1658  2.13101261109581"
      },
      "geometry": {
        "type": "Point",
        "coordinates": [
          99.42205062703181,
          36.41315074924854
        ]
      }
    },
    {
      "type": "Feature",
      "properties": {
        "norad_id": 37868,
        "name": "COSMOS 2477 (745)",
        "group": "gnss",
        "lat": -37.11694247026712,
        "lon": -79.96596936581284,
        "alt_km": 19082.26590345859,
        "timestamp": "2025-12-03T19:33:07.218463+00:00",
        "meta_object_name": "COSMOS 2477 (745)",
        "meta_object_id": "2011-064B",
        "meta_epoch": "2025-12-01T05:34:43.743072",
        "meta_mean_motion": 2.1310269,
        "meta_eccentricity": 0.00209845,
        "meta_inclination": 65.1625,
        "meta_ra_of_asc_node": 79.6383,
        "meta_arg_of_pericenter": 233.8301,
        "meta_mean_anomaly": 166.8442,
        "meta_ephemeris_type": 0,
        "meta_classification_type": "U",
        "meta_norad_cat_id": 37868,
        "meta_element_set_no": 999,
        "meta_rev_at_epoch": 10954,
        "meta_bstar": 0,
        "meta_mean_motion_dot": -1.2e-07,
        "meta_mean_motion_ddot": 0,
        "tle_line1": "1 37868U 11064B   25335.23245073 -.00000012  00000+0  00000+0 0  9990",
        "tle_line2": "2 37868  65.1625  79.6383 0020984 233.8301 166.8442  2.13102690109542"
      },
      "geometry": {
        "type": "Point",
        "coordinates": [
          -79.96596936581284,
          -37.11694247026712
        ]
      }
    },
    {
      "type": "Feature",
      "properties": {
        "norad_id": 37869,
        "name": "COSMOS 2475 (743)",
        "group": "gnss",
        "lat": 2.327374817406855,
        "lon": -101.50529189567312,
        "alt_km": 19108.122983750756,
        "timestamp": "2025-12-03T19:33:07.218475+00:00",
        "meta_object_name": "COSMOS 2475 (743)",
        "meta_object_id": "2011-064C",
        "meta_epoch": "2025-12-01T05:41:50.555616",
        "meta_mean_motion": 2.13101369,
        "meta_eccentricity": 0.00260135,
        "meta_inclination": 65.1695,
        "meta_ra_of_asc_node": 79.658,
        "meta_arg_of_pericenter": 248.1873,
        "meta_mean_anomaly": 112.2788,
        "meta_ephemeris_type": 0,
        "meta_classification_type": "U",
        "meta_norad_cat_id": 37869,
        "meta_element_set_no": 999,
        "meta_rev_at_epoch": 10955,
        "meta_bstar": 0,
        "meta_mean_motion_dot": -1.2e-07,
        "meta_mean_motion_ddot": 0,
        "tle_line1": "1 37869U 11064C   25335.23739069 -.00000012  00000+0  00000+0 0  9994",
        "tle_line2": "2 37869  65.1695  79.6580 0026013 248.1873 112.2788  2.13101369109552"
      },
      "geometry": {
        "type": "Point",
        "coordinates": [
          -101.50529189567312,
          2.327374817406855
        ]
      }
    },
    {
      "type": "Feature",
      "properties": {
        "norad_id": 37948,
        "name": "BEIDOU-2 IGSO-5 (C10)",
        "group": "gnss",
        "lat": -2.900004863522055,
        "lon": 96.53303737474812,
        "alt_km": 35414.0850733713,
        "timestamp": "2025-12-03T19:33:07.218489+00:00",
        "meta_object_name": "BEIDOU-2 IGSO-5 (C10)",
        "meta_object_id": "2011-073A",
        "meta_epoch": "2025-12-02T19:23:39.606720",
        "meta_mean_motion": 1.00292511,
        "meta_eccentricity": 0.01107055,
        "meta_inclination": 48.0402,
        "meta_ra_of_asc_node": 273.9813,
        "meta_arg_of_pericenter": 222.1881,
        "meta_mean_anomaly": 319.0044,
        "meta_ephemeris_type": 0,
        "meta_classification_type": "U",
        "meta_norad_cat_id": 37948,
        "meta_element_set_no": 999,
        "meta_rev_at_epoch": 5116,
        "meta_bstar": 0,
        "meta_mean_motion_dot": -1.77e-06,
        "meta_mean_motion_ddot": 0,
        "tle_line1": "1 37948U 11073A   25336.80809730 -.00000177  00000+0  00000+0 0  9991",
        "tle_line2": "2 37948  48.0402 273.9813 0110705 222.1881 319.0044  1.00292511 51167"
      },
      "geometry": {
        "type": "Point",
        "coordinates": [
          96.53303737474812,
          -2.900004863522055
        ]
      }
    },
    {
      "type": "Feature",
      "properties": {
        "norad_id": 37951,
        "name": "LUCH 5A (SDCM/PRN 140)",
        "group": "gnss",
        "lat": 8.196991907620532,
        "lon": 173.15119339937687,
        "alt_km": 35779.14349383924,
        "timestamp": "2025-12-03T19:33:07.218501+00:00",
        "meta_object_name": "LUCH 5A (SDCM/PRN 140)",
        "meta_object_id": "2011-074B",
        "meta_epoch": "2025-12-03T02:33:47.305728",
        "meta_mean_motion": 1.00273309,
        "meta_eccentricity": 0.0005887,
        "meta_inclination": 8.2536,
        "meta_ra_of_asc_node": 76.7272,
        "meta_arg_of_pericenter": 173.7841,
        "meta_mean_anomaly": 27.1144,
        "meta_ephemeris_type": 0,
        "meta_classification_type": "U",
        "meta_norad_cat_id": 37951,
        "meta_element_set_no": 999,
        "meta_rev_at_epoch": 5108,
        "meta_bstar": 0,
        "meta_mean_motion_dot": -3.4e-07,
        "meta_mean_motion_ddot": 0,
        "tle_line1": "1 37951U 11074B   25337.10679752 -.00000034  00000+0  00000+0 0  9991",
        "tle_line2": "2 37951   8.2536  76.7272 0005887 173.7841  27.1144  1.00273309 51089"
      },
      "geometry": {
        "type": "Point",
        "coordinates": [
          173.15119339937687,
          8.196991907620532
        ]
      }
    }
  ]
}